48967,ONEWEB-0249,2021,109.37,148.0,+,87.92,Active,1,LEO,Russia,UK,Commercial,Communications,Soyuz,1 48967U 21060A   24237.80255956  .00000091  00000+0  20550-3 0  9995,2 48967  87.9160   0.4672 0001828  98.4490 261.6848 13.16594908152581,13.16594908,0.0001828,LEO
48968,ONEWEB-0250,2021,108.64,148.0,+,87.92,Active,1,LEO,Russia,UK,Commercial,Communications,Soyuz,1 48968U 21060B   24237.86954531  .00000011  00000+0 -57604-5 0  9992,2 48968  87.9160   0.3596 0001849 112.9587 247.1745 13.25519423152593,13.25519423,0.0001849,LEO
48970,ONEWEB-0252,2021,109.37,148.0,+,87.92,Active,1,LEO,Russia,UK,Commercial,Communications,Soyuz,1 48970U 21060D   24237.91021788 -.00000068  00000+0 -21088-3 0  9998,2 48970  87.9161   0.4388 0001656  96.1375 263.9945 13.16595446152644,13.16595446,0.0001656,LEO
48971,ONEWEB-0253,2021,109.37,148.0,+,87.92,Active,1,LEO,Russia,UK,Commercial,Communications,Soyuz,1 48971U 21060E   24237.89913408 -.00000043  00000+0 -14715-3 0  9997,2 48971  87.9159   0.4517 0001538 105.3466 254.7835 13.16595016152570,13.16595016,0.0001538,LEO
48972,ONEWEB-0254,2021,109.37,148.0,+,87.92,Active,1,LEO,Russia,UK,Commercial,Communications,Soyuz,1 48972U 21060F   24237.90863286 -.00000015  00000+0 -73341-4 0  9998,2 48972  87.9161   0.4286 0001547 106.1679 253.9622 13.16595425152571,13.16595425,0.0001547,LEO
48973,ONEWEB-0255,2021,109.37,148.0,+,87.92,Active,1,LEO,Russia,UK,Commercial,Communications,Soyuz,1 48973U 21060G   24238.09862727  .00000112  00000+0  25882-3 0  9991,2 48973  87.9160   0.4255 0001823 100.1891 259.9445 13.16594879153969,13.16594879,0.0001823,LEO
48974,ONEWEB-0256,2021,109.37,148.0,+,87.92,Active,1,LEO,Russia,UK,Commercial,Communications,Soyuz,1 48974U 21060H   24237.89674875 -.00000045  00000+0 -15256-3 0  9995,2 48974  87.9164   0.4709 0001770  92.9817 267.1517 13.16596871152611,13.16596871,0.000177,LEO
48975,ONEWEB-0257,2021,109.37,148.0,+,87.92,Active,1,LEO,Russia,UK,Commercial,Communications,Soyuz,1 48975U 21060J   24237.85320777 -.00000240  00000+0 -66243-3 0  9990,2 48975  87.9162   0.4483 0001610  96.7690 263.3625 13.16594407152568,13.16594407,0.000161,LEO
